STARLINK-4205           
1 53174U 22083AU  26148.10850198 -.00000568  00000+0 -17619-4 0  9996
2 53174  53.2049 177.5295 0001271  75.4868 284.6265 15.08835116213209
STARLINK-4292           
1 53175U 22083AV  26148.11123368  .00000450  00000+0  46370-4 0  9994
2 53175  53.2029 177.5796 0001201  99.1845 260.9283 15.08857617213202
STARLINK-4294           
1 53176U 22083AW  26148.18160235 -.00000447  00000+0 -99787-5 0  9995
2 53176  53.2047 152.1759 0000971  68.6626 291.4469 15.08837541213560
STARLINK-4298           
1 53177U 22083AX  26148.14572528 -.00003692  00000+0 -21389-3 0  9990
2 53177  53.2060 142.4129 0001239  76.5197 283.5933 15.08860438213691
STARLINK-4280           
1 53178U 22083AY  26147.77359688  .00004617  00000+0  30816-3 0  9990
2 53178  53.2049 169.0948 0000741  85.4856 274.6221 15.08817745213280
STARLINK-4276           
1 53179U 22083AZ  26148.22986206 -.00000613  00000+0 -20450-4 0  9992
2 53179  53.2044 126.6459 0001099  59.1455 300.9645 15.08840108213925
STARLINK-4258           
1 53180U 22083BA  26148.18941854  .00001514  00000+0  11323-3 0  9996
2 53180  53.2055 127.0970 0001526  89.9747 270.1420 15.08834421213911
STARLINK-4278           
1 53182U 22083BC  26148.14204948  .00000344  00000+0  39730-4 0  9993
2 53182  53.2045 142.4316 0001220  72.8962 287.2163 15.08836873213699
STARLINK-4268           
1 53183U 22083BD  26148.21655983  .00000359  00000+0  40661-4 0  9992
2 53183  53.2052 132.0206 0001163  77.2704 282.8418 15.08837637213840
STARLINK-4257           
1 53184U 22083BE  26148.15993730 -.00001011  00000+0 -45408-4 0  9993
2 53184  53.2035 126.9461 0001754  78.1282 281.9907 15.08845897213923
STARLINK-4391           
1 53189U 22084A   26148.17440895 -.00002604  00000+0 -17647-3 0  9992
2 53189  97.4352 209.0926 0001747  93.4567 266.6860 15.05657490212011
STARLINK-4332           
1 53190U 22084B   26148.12181612 -.00003409  00000+0 -23244-3 0  9992
2 53190  97.4391 209.0748 0000056 165.0108 195.1121 15.05628836212004
STARLINK-4369           
1 53191U 22084C   26148.16668980  .00316516  00000+0  12319-1 0  9998
2 53191  97.6020 209.0150 0001559  77.3538 184.5330 15.24576842  5873
STARLINK-4375           
1 53192U 22084D   26148.15225427 -.00001518  00000+0 -10115-3 0  9992
2 53192  97.4340 209.0997 0002517  87.4114 272.7401 15.05659588212005
STARLINK-4351           
1 53193U 22084E   26148.18413203  .00000703  00000+0  52780-4 0  9995
2 53193  97.4315 208.0081 0001877 135.9999 224.1378 15.05648821212281
STARLINK-4382           
1 53194U 22084F   26148.16886890  .00000343  00000+0  27818-4 0  9994
2 53194  97.4339 209.0902 0002167 126.2744 233.8683 15.05647887211337
STARLINK-4403           
1 53197U 22084J   26148.11212834 -.00003645  00000+0 -24854-3 0  9999
2 53197  97.4347 207.9217 0002114 125.3563 234.7862 15.05675422211252
STARLINK-4385           
1 53198U 22084K   26148.14259686 -.00001746  00000+0 -11695-3 0  9998
2 53198  97.4327 208.0454 0001466 154.9145 205.2154 15.05657524211923
STARLINK-4395           
1 53199U 22084L   26148.14395971 -.00001779  00000+0 -11925-3 0  9999
2 53199  97.4336 209.0945 0002283 123.4203 236.7243 15.05646854211331
STARLINK-4417           
1 53200U 22084M   26148.16333288 -.00000598  00000+0 -37391-4 0  9991
2 53200  97.4340 209.0803 0002335 121.6940 238.4515 15.05649632211998
STARLINK-4405           
1 53201U 22084N   26148.16668980  .00059783  00000+0  24545-2 0  9995
2 53201  97.6005 210.1117 0001285  65.9559 347.7422 15.23986803  5861
STARLINK-4411           
1 53202U 22084P   26148.13286973 -.00008040  00000+0 -55312-3 0  9990
2 53202  97.4341 209.1111 0001955 114.3706 245.7726 15.05695776211333
STARLINK-4409           
1 53203U 22084Q   26148.13009837 -.00005636  00000+0 -38653-3 0  9990
2 53203  97.4333 209.0994 0001510  90.3309 269.8091 15.05684077211336
STARLINK-4410           
1 53204U 22084R   26148.16668980  .00046673  00000+0  19510-2 0  9998
2 53204  97.6007 208.8828 0001791  73.5095 311.3617 15.23450374  5830
STARLINK-4397           
1 53205U 22084S   26148.12456032 -.00000715  00000+0 -45501-4 0  9998
2 53205  97.4331 209.1031 0000829 159.3917 200.7344 15.05662006211335
STARLINK-4408           
1 53206U 22084T   26148.13842346 -.00003058  00000+0 -20804-3 0  9998
2 53206  97.4364 209.0867 0001418  94.7917 265.3472 15.05643043211334
STARLINK-4413           
1 53207U 22084U   26148.16752755  .00000307  00000+0  25353-4 0  9993
2 53207  97.4333 207.9620 0001843 116.8782 243.2634 15.05655148211269
STARLINK-4425           
1 53208U 22084V   26148.16473536 -.00020043  00000+0 -13854-2 0  9993
2 53208  97.4348 207.9901 0001355 151.7597 208.3704 15.05745723211267
STARLINK-4423           
1 53209U 22084W   26148.11490939 -.00001551  00000+0 -10344-3 0  9990
2 53209  97.4335 208.0356 0001996 109.3906 250.7537 15.05664513211266
STARLINK-4427           
1 53210U 22084X   26148.16194137  .00005696  00000+0  39804-3 0  9992
2 53210  97.4369 207.9845 0000855   9.8284 350.2959 15.05695033211807
STARLINK-4416           
1 53212U 22084Z   26148.12733814 -.00000462  00000+0 -27992-4 0  9995
2 53212  97.4362 209.0825 0001071  93.4648 266.6702 15.05652692211324
STARLINK-4414           
1 53213U 22084AA  26148.13705470 -.00001938  00000+0 -13025-3 0  9994
2 53213  97.4332 207.9825 0001258  96.8936 263.2435 15.05660047211782
STARLINK-4353           
1 53214U 22084AB  26148.15643981 -.00000414  00000+0 -24666-4 0  9997
2 53214  97.4349 207.9733 0002243 102.9973 257.1505 15.05654590211263
STARLINK-4335           
1 53215U 22084AC  26148.17711339 -.00001887  00000+0 -12636-3 0  9991
2 53215  97.4351 209.1442 0001144  89.4441 270.6917 15.05777252211860
STARLINK-4376           
1 53216U 22084AD  26148.14536338 -.00001685  00000+0 -11274-3 0  9996
2 53216  97.4335 207.9782 0001220 117.9501 242.1850 15.05655783211263
STARLINK-4384           
1 53218U 22084AF  26148.15503182 -.00001493  00000+0 -99406-4 0  9991
2 53218  97.4334 209.1806 0002858 109.9822 250.1713 15.05656869211869
STARLINK-4373           
1 53219U 22084AG  26148.11625528  .00001295  00000+0  93813-4 0  9991
2 53219  97.4330 209.0558 0001631 112.0605 248.0795 15.05647277211332
STARLINK-4363           
1 53220U 22084AH  26148.14813942  .00009251  00000+0  64515-3 0  9991
2 53220  97.4324 207.9593 0001315 133.5326 226.6010 15.05603954211785
STARLINK-4377           
1 53221U 22084AJ  26148.17583212 -.00000902  00000+0 -58444-4 0  9990
2 53221  97.4344 208.0594 0002393 126.1085 234.0364 15.05654005211270
STARLINK-4356           
1 53224U 22084AM  26148.15090310  .00001255  00000+0  91003-4 0  9991
2 53224  97.4333 207.9481 0002082 106.7677 253.3779 15.05643273211268
STARLINK-4358           
1 53225U 22084AN  26148.18547738 -.00011063  00000+0 -76270-3 0  9994
2 53225  97.4346 209.1006 0002038  99.7606 260.3852 15.05706266211345
STARLINK-4359           
1 53226U 22084AP  26148.13428454 -.00002266  00000+0 -15299-3 0  9992
2 53226  97.4328 207.9599 0001455 125.7956 234.3407 15.05662932211268
STARLINK-4366           
1 53227U 22084AQ  26148.16610492  .00001469  00000+0  10589-3 0  9990
2 53227  97.4320 209.1031 0002136  97.5310 262.6160 15.05640934211340
STARLINK-4365           
1 53228U 22084AR  26148.15919647 -.00036568  00000+0 -25309-2 0  9999
2 53228  97.4329 208.0715 0002626 150.6443 209.4932 15.05830894211273
STARLINK-4367           
1 53229U 22084AS  26148.17160922  .00004891  00000+0  34247-3 0  9990
2 53229  97.4407 209.1103 0001240  40.4482 319.6837 15.05686579211349
STARLINK-4364           
1 53230U 22084AT  26148.14949399  .00001833  00000+0  13108-3 0  9998
2 53230  97.4338 209.1416 0002312 110.7905 249.3570 15.05642138211349
STARLINK-4370           
1 53231U 22084AU  26148.16056326  .00000470  00000+0  36609-4 0  9998
2 53231  97.4339 209.1144 0000955 145.2657 214.8632 15.05643944211349
STARLINK-4371           
1 53232U 22084AV  26148.13150802 -.00004731  00000+0 -32386-3 0  9993
2 53232  97.4333 207.9417 0000875 153.4134 206.7139 15.05678056211260
STARLINK-4372           
1 53233U 22084AW  26148.12320981 -.00002020  00000+0 -13595-3 0  9990
2 53233  97.4348 207.9462 0001990 136.6926 223.4458 15.05660647211265
STARLINK-4368           
1 53234U 22084AX  26148.16668980  .00095746  00000+0  34187-2 0  9993
2 53234  97.6001 209.0082 0002475  85.6033 131.8274 15.28458440  5862
CSS (WENTIAN)           
1 53239U 22085A   26147.87962256  .00016105  00000+0  19772-3 0  9995
2 53239  41.4683  85.5029 0010780 293.4898  66.4807 15.59880154288238
STARLINK-4056           
1 53242U 22086A   26147.46309174  .00000019  00000+0  19278-4 0  9998
2 53242  53.2041 205.4760 0001187  66.1856 293.9260 15.08834208213204
STARLINK-4047           
1 53243U 22086B   26147.43499131  .00000590  00000+0  55130-4 0  9990
2 53243  53.2046 210.3109 0001209  70.2793 289.8329 15.08840949213156
STARLINK-4125           
1 53244U 22086C   26147.46079790  .00000188  00000+0  29949-4 0  9991
2 53244  53.2072 210.5808 0002000  51.8627 308.2546 15.08841684213137
STARLINK-4131           
1 53246U 22086E   26148.18575009 -.00000202  00000+0  54101-5 0  9994
2 53246  53.2034 207.2491 0001150  92.3344 267.7779 15.08835840212132
STARLINK-4061           
1 53247U 22086F   26148.14023553 -.00000128  00000+0  10061-4 0  9996
2 53247  53.2042 202.6310 0001149  84.6533 275.4590 15.08836553213302
STARLINK-4135           
1 53248U 22086G   26147.53302533  .00000297  00000+0  36741-4 0  9996
2 53248  53.2048 205.2771 0001323  71.3586 288.7549 15.08837474213218
STARLINK-4128           
1 53249U 22086H   26148.13242907  .00002901  00000+0  20034-3 0  9993
2 53249  53.2052 197.4956 0001277  83.4328 276.6809 15.08826239213073
STARLINK-4059           
1 53250U 22086J   26147.40650840  .00000794  00000+0  67970-4 0  9992
2 53250  53.2055 200.7445 0001230  86.2406 273.8726 15.08841401212957
